[{"OBJECT_NAME":"IRIDIUM 169","OBJECT_ID":"2019-002E","EPOCH":"2026-03-09T22:14:17.748384","MEAN_MOTION":14.38612437,"ECCENTRICITY":0.00014131,"INCLINATION":86.4172,"RA_OF_ASC_NODE":66.6873,"ARG_OF_PERICENTER":82.9186,"MEAN_ANOMALY":277.2173,"EPHEMERIS_TYPE":0,"CLASSIFICATION_TYPE":"U","NORAD_CAT_ID":43926,"ELEMENT_SET_NO":999,"REV_AT_EPOCH":37595,"BSTAR":6.3248636e-5,"MEAN_MOTION_DOT":2.13e-6,"MEAN_MOTION_DDOT":0},{"OBJECT_NAME":"CZ-6A DEB","OBJECT_ID":"2022-151QS","EPOCH":"2026-03-09T09:53:43.621152","MEAN_MOTION":14.46974359,"ECCENTRICITY":0.0081997,"INCLINATION":98.7191,"RA_OF_ASC_NODE":130.5753,"ARG_OF_PERICENTER":223.81,"MEAN_ANOMALY":135.6568,"EPHEMERIS_TYPE":0,"CLASSIFICATION_TYPE":"U","NORAD_CAT_ID":54905,"ELEMENT_SET_NO":999,"REV_AT_EPOCH":17205,"BSTAR":0.00062796863,"MEAN_MOTION_DOT":2.33e-5,"MEAN_MOTION_DDOT":0}]
